IONOSFERA-M 2           
1 61736U 24199B   26165.27440481  .00000054  00000+0  43783-4 0  9995
2 61736  98.7175  38.3880 0001171  41.6367 318.4900 14.22757030130414
PRSC-EO1                
1 62725U 25012A   26165.29061247  .00007061  00000+0  35307-3 0  9997
2 62725  97.4231 237.8069 0004328 264.0756  95.9985 15.17736627 77758
BIOMASS                 
1 63772U 25090A   26165.23802349  .00000898  00000+0  16676-3 0  9995
2 63772  98.0741 352.5979 0001359  91.8536 268.2824 14.67539241 60253
GOSAT-GW (IBUKI GW)     
1 64694U 25141A   26165.25834495  .00000547  00000+0  10487-3 0  9990
2 64694  98.0569 102.6230 0001433  84.2329 275.9039 14.67551888 51410
IONOSFERA-M 3           
1 64876U 25155A   26165.21910403  .00000037  00000+0  36303-4 0  9997
2 64876  98.6023 127.1988 0000831 162.3706 197.7501 14.21486013 45980
IONOSFERA-M 4           
1 64877U 25155B   26165.25395042  .00000034  00000+0  35090-4 0  9997
2 64877  98.6030 127.1502 0000947 120.4346 239.6925 14.21488202 45982
MICROCARB               
1 64899U 25156A   26165.15947180  .00000449  00000+0  78846-4 0  9993
2 64899  97.9831 242.3508 0014984 282.8440  77.1094 14.72322667 47529
CO3D 3                  
1 64900U 25156B   26165.22560721  .00004464  00000+0  20921-3 0  9997
2 64900  97.4334 243.9609 0001314 131.3920 228.7428 15.20200457 49082
CO3D 4                  
1 64901U 25156C   26165.02829098  .00000258  00000+0  15030-4 0  9994
2 64901  97.4333 243.7668 0000404  12.0282 348.0962 15.20198817 49052
CO3D 2                  
1 64902U 25156D   26165.25823819  .00004440  00000+0  20815-3 0  9998
2 64902  97.4335 243.8920 0001468 107.8603 252.2792 15.20197985 49083
CO3D 1                  
1 64903U 25156E   26165.25838901  .00004991  00000+0  23354-3 0  9999
2 64903  97.4335 243.8923 0001258 111.5035 248.6335 15.20197352 49085
PRSC-S1                 
1 65055U 25164A   26165.28055869  .00004895  00000+0  33766-3 0  9995
2 65055  41.1314 304.1813 0007041 326.2109  33.8255 15.06435608 47995
SENTINEL-6B             
1 66514U 25264A   26165.27509800 -.00000060  00000+0  31961-5 0  9993
2 66514  66.0392 141.2269 0008032 269.2138  90.7956 12.80929963 26798
CAS500-3                
1 66655U 25274F   26165.25706106  .00001110  00000+0  12579-3 0  9994
2 66655  97.7447  93.3747 0006641 117.6935 242.4956 14.88314776 29710
CSG-3                   
1 67304U 26001A   26165.22857103  .00000298  00000+0  44036-4 0  9996
2 67304  97.8885 348.8732 0001341  94.3818 265.7549 14.82151944 24029
PRSC-E03                
1 68835U 26092A   26165.27210826  .00002482  00000+0  17133-3 0  9990
2 68835  38.0002 106.8693 0004257 341.9194  18.1416 15.06655242  7517
CAS500-2                
1 69013U 26100AK  26165.25669553  .00006574  00000+0  30294-3 0  9991
2 69013  97.4086  63.1628 0010951  43.7980 316.4122 15.20559712  6369
