OBJECT_NAME,OBJECT_ID,EPOCH,MEAN_MOTION,ECCENTRICITY,INCLINATION,RA_OF_ASC_NODE,ARG_OF_PERICENTER,MEAN_ANOMALY,EPHEMERIS_TYPE,CLASSIFICATION_TYPE,NORAD_CAT_ID,ELEMENT_SET_NO,REV_AT_EPOCH,BSTAR,MEAN_MOTION_DOT,MEAN_MOTION_DDOT
IONOSFERA-M 2,2024-199B,2026-06-14T06:35:08.575584,14.22757030,.00011712,98.7175,38.3880,41.6367,318.4900,0,U,61736,999,13041,.43783205E-4,.54E-6,0
PRSC-EO1,2025-012A,2026-06-14T06:58:28.917408,15.17736627,.0004328,97.4231,237.8069,264.0756,95.9985,0,U,62725,999,7775,.35306616E-3,.7061E-4,0
BIOMASS,2025-090A,2026-06-14T05:42:45.229536,14.67539241,.00013591,98.0741,352.5979,91.8536,268.2824,0,U,63772,999,6025,.16675566E-3,.898E-5,0
GOSAT-GW (IBUKI GW),2025-141A,2026-06-14T06:12:01.003680,14.67551888,.00014335,98.0569,102.6230,84.2329,275.9039,0,U,64694,999,5141,.10486533E-3,.547E-5,0
IONOSFERA-M 3,2025-155A,2026-06-14T05:15:30.588192,14.21486013,.00008316,98.6023,127.1988,162.3706,197.7501,0,U,64876,999,4598,.36302821E-4,.37E-6,0
IONOSFERA-M 4,2025-155B,2026-06-14T06:05:41.316288,14.21488202,.00009476,98.6030,127.1502,120.4346,239.6925,0,U,64877,999,4598,.35089673E-4,.34E-6,0
MICROCARB,2025-156A,2026-06-14T03:49:38.363520,14.72322667,.0014984,97.9831,242.3508,282.8440,77.1094,0,U,64899,999,4752,.78846141E-4,.449E-5,0
CO3D 3,2025-156B,2026-06-14T05:24:52.462944,15.20200457,.00013149,97.4334,243.9609,131.3920,228.7428,0,U,64900,999,4908,.20921333E-3,.4464E-4,0
CO3D 4,2025-156C,2026-06-14T00:40:44.340672,15.20198817,.00004041,97.4333,243.7668,12.0282,348.0962,0,U,64901,999,4905,.15029965E-4,.258E-5,0
CO3D 2,2025-156D,2026-06-14T06:11:51.779616,15.20197985,.00014683,97.4335,243.8920,107.8603,252.2792,0,U,64902,999,4908,.20814659E-3,.444E-4,0
CO3D 1,2025-156E,2026-06-14T06:12:04.810464,15.20197352,.00012583,97.4335,243.8923,111.5035,248.6335,0,U,64903,999,4908,.2335398E-3,.4991E-4,0
PRSC-S1,2025-164A,2026-06-14T06:44:00.270816,15.06435608,.00070414,41.1314,304.1813,326.2109,33.8255,0,U,65055,999,4799,.33766475E-3,.4895E-4,0
SENTINEL-6B,2025-264A,2026-06-14T06:36:08.467200,12.80929963,.00080327,66.0392,141.2269,269.2138,90.7956,0,U,66514,999,2679,.3196061E-5,-.6E-6,0
CAS500-3,2025-274F,2026-06-14T06:10:10.075584,14.88314776,.00066411,97.7447,93.3747,117.6935,242.4956,0,U,66655,999,2971,.12579181E-3,.111E-4,0
CSG-3,2026-001A,2026-06-14T05:29:08.536992,14.82151944,.00013412,97.8885,348.8732,94.3818,265.7549,0,U,67304,999,2402,.44035861E-4,.298E-5,0
PRSC-E03,2026-092A,2026-06-14T06:31:50.153664,15.06655242,.00042571,38.0002,106.8693,341.9194,18.1416,0,U,68835,999,751,.17132964E-3,.2482E-4,0
CAS500-2,2026-100AK,2026-06-14T06:09:38.493792,15.20559712,.00109515,97.4086,63.1628,43.7980,316.4122,0,U,69013,999,636,.30293996E-3,.6574E-4,0
